[{"OBJECT_NAME":"FORMOSAT 7-4","OBJECT_ID":"2019-036M","EPOCH":"2026-03-09T23:18:59.695200","MEAN_MOTION":14.96015542,"ECCENTRICITY":0.00014118,"INCLINATION":23.9994,"RA_OF_ASC_NODE":43.1446,"ARG_OF_PERICENTER":104.6737,"MEAN_ANOMALY":255.392,"EPHEMERIS_TYPE":0,"CLASSIFICATION_TYPE":"U","NORAD_CAT_ID":44350,"ELEMENT_SET_NO":999,"REV_AT_EPOCH":36919,"BSTAR":0.00031042546,"MEAN_MOTION_DOT":3.87e-5,"MEAN_MOTION_DDOT":0},{"OBJECT_NAME":"BRO-13","OBJECT_ID":"2024-043K","EPOCH":"2026-03-09T22:19:47.829216","MEAN_MOTION":14.96296765,"ECCENTRICITY":0.00083947,"INCLINATION":97.8333,"RA_OF_ASC_NODE":199.7446,"ARG_OF_PERICENTER":338.0901,"MEAN_ANOMALY":21.996,"EPHEMERIS_TYPE":0,"CLASSIFICATION_TYPE":"U","NORAD_CAT_ID":59107,"ELEMENT_SET_NO":999,"REV_AT_EPOCH":10977,"BSTAR":0.00013050562,"MEAN_MOTION_DOT":1.416e-5,"MEAN_MOTION_DDOT":0}]
